{"fetched_at":"2026-07-05T12:47:58.728Z","source":"https://celestrak.org/NORAD/elements/gp.php?NAME=HAWK&FORMAT=JSON","constellation":"hawkeye-360","records":[{"OBJECT_NAME":"HAWK-7B","OBJECT_ID":"2023-054R","EPOCH":"2026-07-04T17:35:10.099392","CLASSIFICATION_TYPE":"U","MEAN_MOTION":15.27552891,"ECCENTRICITY":0.00024538,"INCLINATION":97.2703,"RA_OF_ASC_NODE":70.894,"ARG_OF_PERICENTER":35.8376,"MEAN_ANOMALY":324.3028,"EPHEMERIS_TYPE":0,"NORAD_CAT_ID":56193,"ELEMENT_SET_NO":999,"REV_AT_EPOCH":17970,"BSTAR":0.00034934762,"MEAN_MOTION_DOT":0.00009345,"MEAN_MOTION_DDOT":0},{"OBJECT_NAME":"HAWK-7C","OBJECT_ID":"2023-054Y","EPOCH":"2026-07-05T03:00:58.732992","CLASSIFICATION_TYPE":"U","MEAN_MOTION":15.27558745,"ECCENTRICITY":0.00021209,"INCLINATION":97.2677,"RA_OF_ASC_NODE":72.04,"ARG_OF_PERICENTER":23.2789,"MEAN_ANOMALY":336.8547,"EPHEMERIS_TYPE":0,"NORAD_CAT_ID":56200,"ELEMENT_SET_NO":999,"REV_AT_EPOCH":17976,"BSTAR":0.00035018887,"MEAN_MOTION_DOT":0.0000937,"MEAN_MOTION_DDOT":0},{"OBJECT_NAME":"HAWK-8A","OBJECT_ID":"2024-066B","EPOCH":"2026-07-05T00:52:53.232672","CLASSIFICATION_TYPE":"U","MEAN_MOTION":14.99267362,"ECCENTRICITY":0.00020903,"INCLINATION":45.5935,"RA_OF_ASC_NODE":184.348,"ARG_OF_PERICENTER":172.4824,"MEAN_ANOMALY":187.6089,"EPHEMERIS_TYPE":0,"NORAD_CAT_ID":59443,"ELEMENT_SET_NO":999,"REV_AT_EPOCH":12251,"BSTAR":0.00015786027,"MEAN_MOTION_DOT":0.00001724,"MEAN_MOTION_DDOT":0},{"OBJECT_NAME":"HAWK-8B","OBJECT_ID":"2024-066D","EPOCH":"2026-07-04T08:54:01.012320","CLASSIFICATION_TYPE":"U","MEAN_MOTION":14.99275999,"ECCENTRICITY":0.00021813,"INCLINATION":45.6163,"RA_OF_ASC_NODE":189.7483,"ARG_OF_PERICENTER":173.7363,"MEAN_ANOMALY":186.3546,"EPHEMERIS_TYPE":0,"NORAD_CAT_ID":59445,"ELEMENT_SET_NO":999,"REV_AT_EPOCH":12240,"BSTAR":0.0012775905,"MEAN_MOTION_DOT":0.00015622,"MEAN_MOTION_DDOT":0},{"OBJECT_NAME":"HAWK-9A","OBJECT_ID":"2024-066E","EPOCH":"2026-07-05T03:01:40.816704","CLASSIFICATION_TYPE":"U","MEAN_MOTION":14.99194685,"ECCENTRICITY":0.00018343,"INCLINATION":45.6081,"RA_OF_ASC_NODE":184.5105,"ARG_OF_PERICENTER":152.7093,"MEAN_ANOMALY":207.3885,"EPHEMERIS_TYPE":0,"NORAD_CAT_ID":59446,"ELEMENT_SET_NO":999,"REV_AT_EPOCH":12252,"BSTAR":0.00017079805,"MEAN_MOTION_DOT":0.0000188,"MEAN_MOTION_DDOT":0},{"OBJECT_NAME":"HAWK-9C","OBJECT_ID":"2024-066G","EPOCH":"2026-07-05T03:02:05.057952","CLASSIFICATION_TYPE":"U","MEAN_MOTION":14.99198199,"ECCENTRICITY":0.0001718,"INCLINATION":45.6043,"RA_OF_ASC_NODE":183.6117,"ARG_OF_PERICENTER":129.0836,"MEAN_ANOMALY":231.0198,"EPHEMERIS_TYPE":0,"NORAD_CAT_ID":59448,"ELEMENT_SET_NO":999,"REV_AT_EPOCH":12252,"BSTAR":0.00018438676,"MEAN_MOTION_DOT":0.00002048,"MEAN_MOTION_DDOT":0},{"OBJECT_NAME":"HAWK-8C","OBJECT_ID":"2024-066H","EPOCH":"2026-07-05T00:52:48.969696","CLASSIFICATION_TYPE":"U","MEAN_MOTION":14.99273187,"ECCENTRICITY":0.00019897,"INCLINATION":45.605,"RA_OF_ASC_NODE":185.3353,"ARG_OF_PERICENTER":188.7443,"MEAN_ANOMALY":171.3404,"EPHEMERIS_TYPE":0,"NORAD_CAT_ID":59449,"ELEMENT_SET_NO":999,"REV_AT_EPOCH":12250,"BSTAR":0.00025013708,"MEAN_MOTION_DOT":0.00002867,"MEAN_MOTION_DDOT":0},{"OBJECT_NAME":"HAWK-9B","OBJECT_ID":"2024-066J","EPOCH":"2026-07-05T03:02:06.301248","CLASSIFICATION_TYPE":"U","MEAN_MOTION":14.99195563,"ECCENTRICITY":0.00019213,"INCLINATION":45.6123,"RA_OF_ASC_NODE":185.4424,"ARG_OF_PERICENTER":121.1377,"MEAN_ANOMALY":238.9693,"EPHEMERIS_TYPE":0,"NORAD_CAT_ID":59450,"ELEMENT_SET_NO":999,"REV_AT_EPOCH":12252,"BSTAR":0.00017832014,"MEAN_MOTION_DOT":0.00001973,"MEAN_MOTION_DDOT":0},{"OBJECT_NAME":"HAWK-10A","OBJECT_ID":"2024-149CA","EPOCH":"2026-07-05T03:44:03.269760","CLASSIFICATION_TYPE":"U","MEAN_MOTION":14.96571991,"ECCENTRICITY":0.0003842,"INCLINATION":97.689,"RA_OF_ASC_NODE":261.7582,"ARG_OF_PERICENTER":37.1483,"MEAN_ANOMALY":323.0003,"EPHEMERIS_TYPE":0,"NORAD_CAT_ID":60540,"ELEMENT_SET_NO":999,"REV_AT_EPOCH":10267,"BSTAR":0.00023294316,"MEAN_MOTION_DOT":0.00002594,"MEAN_MOTION_DDOT":0},{"OBJECT_NAME":"HAWK-10B","OBJECT_ID":"2024-149CF","EPOCH":"2026-07-05T03:43:51.231648","CLASSIFICATION_TYPE":"U","MEAN_MOTION":14.96571928,"ECCENTRICITY":0.00061874,"INCLINATION":97.6812,"RA_OF_ASC_NODE":261.0952,"ARG_OF_PERICENTER":47.2734,"MEAN_ANOMALY":312.9007,"EPHEMERIS_TYPE":0,"NORAD_CAT_ID":60545,"ELEMENT_SET_NO":999,"REV_AT_EPOCH":10267,"BSTAR":0.00023706967,"MEAN_MOTION_DOT":0.00002642,"MEAN_MOTION_DDOT":0},{"OBJECT_NAME":"HAWK-10C","OBJECT_ID":"2024-149DM","EPOCH":"2026-07-05T03:44:19.668480","CLASSIFICATION_TYPE":"U","MEAN_MOTION":14.96571988,"ECCENTRICITY":0.00034356,"INCLINATION":97.6731,"RA_OF_ASC_NODE":260.416,"ARG_OF_PERICENTER":28.1317,"MEAN_ANOMALY":332.0089,"EPHEMERIS_TYPE":0,"NORAD_CAT_ID":60575,"ELEMENT_SET_NO":999,"REV_AT_EPOCH":10267,"BSTAR":0.00023915831,"MEAN_MOTION_DOT":0.00002665,"MEAN_MOTION_DDOT":0},{"OBJECT_NAME":"HAWK-11B","OBJECT_ID":"2024-247C","EPOCH":"2026-07-05T01:18:22.415040","CLASSIFICATION_TYPE":"U","MEAN_MOTION":15.30570455,"ECCENTRICITY":0.00043792,"INCLINATION":45.0141,"RA_OF_ASC_NODE":191.7804,"ARG_OF_PERICENTER":324.5613,"MEAN_ANOMALY":35.4979,"EPHEMERIS_TYPE":0,"NORAD_CAT_ID":62379,"ELEMENT_SET_NO":999,"REV_AT_EPOCH":8574,"BSTAR":0.00042093955,"MEAN_MOTION_DOT":0.00012399,"MEAN_MOTION_DDOT":0},{"OBJECT_NAME":"HAWK-11C","OBJECT_ID":"2024-247E","EPOCH":"2026-07-05T01:17:42.214848","CLASSIFICATION_TYPE":"U","MEAN_MOTION":15.30567145,"ECCENTRICITY":0.00052556,"INCLINATION":45.0025,"RA_OF_ASC_NODE":191.1245,"ARG_OF_PERICENTER":315.5074,"MEAN_ANOMALY":44.5388,"EPHEMERIS_TYPE":0,"NORAD_CAT_ID":62381,"ELEMENT_SET_NO":999,"REV_AT_EPOCH":8574,"BSTAR":0.00033567335,"MEAN_MOTION_DOT":0.00009821,"MEAN_MOTION_DDOT":0},{"OBJECT_NAME":"HAWK-11A","OBJECT_ID":"2024-247F","EPOCH":"2026-07-05T01:17:49.727328","CLASSIFICATION_TYPE":"U","MEAN_MOTION":15.30567248,"ECCENTRICITY":0.00048241,"INCLINATION":44.9924,"RA_OF_ASC_NODE":190.4631,"ARG_OF_PERICENTER":314.3845,"MEAN_ANOMALY":45.6644,"EPHEMERIS_TYPE":0,"NORAD_CAT_ID":62382,"ELEMENT_SET_NO":999,"REV_AT_EPOCH":8574,"BSTAR":0.00034005908,"MEAN_MOTION_DOT":0.00009954,"MEAN_MOTION_DDOT":0},{"OBJECT_NAME":"HAWK-12C","OBJECT_ID":"2025-138A","EPOCH":"2026-07-04T23:15:19.605024","CLASSIFICATION_TYPE":"U","MEAN_MOTION":15.18347805,"ECCENTRICITY":0.00158032,"INCLINATION":97.4345,"RA_OF_ASC_NODE":188.1117,"ARG_OF_PERICENTER":83.0072,"MEAN_ANOMALY":277.2959,"EPHEMERIS_TYPE":0,"NORAD_CAT_ID":64621,"ELEMENT_SET_NO":999,"REV_AT_EPOCH":5656,"BSTAR":0.0003167682,"MEAN_MOTION_DOT":0.00006459,"MEAN_MOTION_DDOT":0},{"OBJECT_NAME":"HAWK-12B","OBJECT_ID":"2025-138B","EPOCH":"2026-07-04T23:15:34.585920","CLASSIFICATION_TYPE":"U","MEAN_MOTION":15.183471,"ECCENTRICITY":0.00147479,"INCLINATION":97.4468,"RA_OF_ASC_NODE":188.7891,"ARG_OF_PERICENTER":78.7711,"MEAN_ANOMALY":281.518,"EPHEMERIS_TYPE":0,"NORAD_CAT_ID":64622,"ELEMENT_SET_NO":999,"REV_AT_EPOCH":5656,"BSTAR":0.00031557338,"MEAN_MOTION_DOT":0.00006431,"MEAN_MOTION_DDOT":0}]}
