HAWK-7B                 
1 56193U 23054R   26185.73275578  .00009345  00000+0  34935-3 0  9991
2 56193  97.2703  70.8940 0002453  35.8376 324.3028 15.27552891179709
HAWK-7C                 
1 56200U 23054Y   26186.12567978  .00009370  00000+0  35019-3 0  9994
2 56200  97.2677  72.0400 0002120  23.2789 336.8547 15.27558745179767
HAWK-8A                 
1 59443U 24066B   26186.03672723  .00001724  00000+0  15786-3 0  9999
2 59443  45.5935 184.3480 0002090 172.4824 187.6089 14.99267362122514
HAWK-8B                 
1 59445U 24066D   26185.37084505  .00015622  00000+0  12776-2 0  9999
2 59445  45.6163 189.7483 0002181 173.7363 186.3546 14.99275999122402
HAWK-9A                 
1 59446U 24066E   26186.12616686  .00001880  00000+0  17080-3 0  9990
2 59446  45.6081 184.5105 0001834 152.7093 207.3885 14.99194685122522
HAWK-9C                 
1 59448U 24066G   26186.12644743  .00002048  00000+0  18439-3 0  9993
2 59448  45.6043 183.6117 0001718 129.0836 231.0198 14.99198199122523
HAWK-8C                 
1 59449U 24066H   26186.03667789  .00002867  00000+0  25014-3 0  9995
2 59449  45.6050 185.3353 0001989 188.7443 171.3404 14.99273187122504
HAWK-9B                 
1 59450U 24066J   26186.12646182  .00001973  00000+0  17832-3 0  9997
2 59450  45.6123 185.4424 0001921 121.1377 238.9693 14.99195563122523
HAWK-10A                
1 60540U 24149CA  26186.15559340  .00002594  00000+0  23294-3 0  9992
2 60540  97.6890 261.7582 0003842  37.1483 323.0003 14.96571991102679
HAWK-10B                
1 60545U 24149CF  26186.15545407  .00002642  00000+0  23707-3 0  9999
2 60545  97.6812 261.0952 0006187  47.2734 312.9007 14.96571928102679
HAWK-10C                
1 60575U 24149DM  26186.15578320  .00002665  00000+0  23916-3 0  9999
2 60575  97.6731 260.4160 0003435  28.1317 332.0089 14.96571988102673
HAWK-11B                
1 62379U 24247C   26186.05442610  .00012399  00000+0  42094-3 0  9996
2 62379  45.0141 191.7804 0004379 324.5613  35.4979 15.30570455 85747
HAWK-11C                
1 62381U 24247E   26186.05396082  .00009821  00000+0  33567-3 0  9991
2 62381  45.0025 191.1245 0005255 315.5074  44.5388 15.30567145 85746
HAWK-11A                
1 62382U 24247F   26186.05404777  .00009954  00000+0  34006-3 0  9999
2 62382  44.9924 190.4631 0004824 314.3845  45.6644 15.30567248 85749
HAWK-12C                
1 64621U 25138A   26185.96897691  .00006459  00000+0  31677-3 0  9995
2 64621  97.4345 188.1117 0015803  83.0072 277.2959 15.18347805 56562
HAWK-12B                
1 64622U 25138B   26185.96915030  .00006431  00000+0  31557-3 0  9991
2 64622  97.4468 188.7891 0014747  78.7711 281.5180 15.18347100 56563
